start=new Date('2023-03-11T00:00:00.000Z').valueOf();
sats=[{"RCS_SIZE":"LARGE","MEAN_ANOMALY":"277.3974","EPOCH":"2023-03-10T21:51:06.827616","GP_ID":"227815358","REF_FRAME":"TEME","PERIOD":"95.593","COUNTRY_CODE":"US","REV_AT_EPOCH":"10741","ARG_OF_PERICENTER":"82.7250","TIME_SYSTEM":"UTC","ECCENTRICITY":"0.00020710","MEAN_MOTION_DDOT":"0.0000000000000","SITE":"AFETR","CENTER_NAME":"EARTH","OBJECT_TYPE":"PAYLOAD","LAUNCH_DATE":"2021-04-07","MEAN_MOTION_DOT":"0.00007084","BSTAR":"0.00049417000000","OBJECT_NAME":"STARLINK-2412","TLE_LINE1":"1 48094U 21027C   23069.91049569  .00007084  00000-0  49417-3 0  9997","FILE":"3856975","ELEMENT_SET_NO":"999","TLE_LINE2":"2 48094  53.0554  46.2699 0002071  82.7250 277.3974 15.06388144107411","PERIAPSIS":"545.816","NORAD_CAT_ID":"48094","OBJECT_ID":"2021-027C","CLASSIFICATION_TYPE":"U","MEAN_ELEMENT_THEORY":"SGP4","DECAY_DATE":null,"MEAN_MOTION":"15.06388144","EPHEMERIS_TYPE":"0","APOAPSIS":"548.684","INCLINATION":"53.0554","RA_OF_ASC_NODE":"46.2699","SEMIMAJOR_AXIS":"6925.385"},{"RCS_SIZE":"MEDIUM","GP_ID":"227816108","REF_FRAME":"TEME","PERIOD":"95.593","MEAN_ANOMALY":"273.1466","EPOCH":"2023-03-10T22:01:44.315328","TIME_SYSTEM":"UTC","ECCENTRICITY":"0.00014000","COUNTRY_CODE":"US","REV_AT_EPOCH":"10742","ARG_OF_PERICENTER":"86.9684","CENTER_NAME":"EARTH","MEAN_MOTION_DDOT":"0.0000000000000","SITE":"AFETR","MEAN_MOTION_DOT":"0.00001510","BSTAR":"0.00012027000000","OBJECT_TYPE":"PAYLOAD","LAUNCH_DATE":"2021-04-07","OBJECT_NAME":"STARLINK-2414","OBJECT_ID":"2021-027D","FILE":"3856975","TLE_LINE1":"1 48095U 21027D   23069.91787402  .00001510  00000-0  12027-3 0  9998","ELEMENT_SET_NO":"999","TLE_LINE2":"2 48095  53.0569  46.2378 0001400  86.9684 273.1466 15.06391506107421","PERIAPSIS":"546.270","NORAD_CAT_ID":"48095","EPHEMERIS_TYPE":"0","APOAPSIS":"548.209","INCLINATION":"53.0569","SEMIMAJOR_AXIS":"6925.375","RA_OF_ASC_NODE":"46.2378","CLASSIFICATION_TYPE":"U","MEAN_ELEMENT_THEORY":"SGP4","DECAY_DATE":null,"MEAN_MOTION":"15.06391506"},{"TIME_SYSTEM":"UTC","ECCENTRICITY":"0.00013710","REV_AT_EPOCH":"10736","COUNTRY_CODE":"US","ARG_OF_PERICENTER":"94.2410","CENTER_NAME":"EARTH","MEAN_MOTION_DDOT":"0.0000000000000","SITE":"AFETR","RCS_SIZE":"LARGE","GP_ID":"227814856","PERIOD":"95.592","REF_FRAME":"TEME","MEAN_ANOMALY":"265.8735","EPOCH":"2023-03-10T15:02:24.265536","OBJECT_ID":"2021-027E","TLE_LINE2":"2 48096  53.0567  47.5459 0001371  94.2410 265.8735 15.06406202107360","TLE_LINE1":"1 48096U 21027E   23069.62666974  .00000972  00000-0  84121-4 0  9993","ELEMENT_SET_NO":"999","FILE":"3856975","NORAD_CAT_ID":"48096","PERIAPSIS":"546.245","APOAPSIS":"548.144","EPHEMERIS_TYPE":"0","SEMIMAJOR_AXIS":"6925.330","RA_OF_ASC_NODE":"47.5459","INCLINATION":"53.0567","CLASSIFICATION_TYPE":"U","DECAY_DATE":null,"MEAN_MOTION":"15.06406202","MEAN_ELEMENT_THEORY":"SGP4","MEAN_MOTION_DOT":"0.00000972","BSTAR":"0.00008412100000","OBJECT_TYPE":"PAYLOAD","LAUNCH_DATE":"2021-04-07","OBJECT_NAME":"STARLINK-2417"},{"SITE":"AFETR","MEAN_MOTION_DDOT":"0.0000000000000","CENTER_NAME":"EARTH","ARG_OF_PERICENTER":"73.3078","COUNTRY_CODE":"US","REV_AT_EPOCH":"10764","ECCENTRICITY":"0.00024940","TIME_SYSTEM":"UTC","EPOCH":"2023-03-10T14:33:13.569984","MEAN_ANOMALY":"286.8185","PERIOD":"95.593","REF_FRAME":"TEME","GP_ID":"227815106","RCS_SIZE":"LARGE","MEAN_MOTION":"15.06384647","DECAY_DATE":null,"MEAN_ELEMENT_THEORY":"SGP4","CLASSIFICATION_TYPE":"U","SEMIMAJOR_AXIS":"6925.396","RA_OF_ASC_NODE":"27.6355","INCLINATION":"53.0548","APOAPSIS":"548.988","EPHEMERIS_TYPE":"0","NORAD_CAT_ID":"48097","PERIAPSIS":"545.533","TLE_LINE2":"2 48097  53.0548  27.6355 0002494  73.3078 286.8185 15.06384647107640","ELEMENT_SET_NO":"999","TLE_LINE1":"1 48097U 21027F   23069.60640706  .00008854  00000-0  61282-3 0  9996","FILE":"3856975","OBJECT_ID":"2021-027F","OBJECT_NAME":"STARLINK-2418","LAUNCH_DATE":"2021-04-07","OBJECT_TYPE":"PAYLOAD","BSTAR":"0.00061282000000","MEAN_MOTION_DOT":"0.00008854"},{"OBJECT_NAME":"STARLINK-2421","BSTAR":"0.00183390000000","MEAN_MOTION_DOT":"0.00027137","LAUNCH_DATE":"2021-04-07","OBJECT_TYPE":"PAYLOAD","SEMIMAJOR_AXIS":"6925.361","RA_OF_ASC_NODE":"36.2466","INCLINATION":"53.0557","APOAPSIS":"548.005","EPHEMERIS_TYPE":"0","DECAY_DATE":null,"MEAN_MOTION":"15.06396036","MEAN_ELEMENT_THEORY":"SGP4","CLASSIFICATION_TYPE":"U","OBJECT_ID":"2021-027G","NORAD_CAT_ID":"48098","PERIAPSIS":"546.447","TLE_LINE2":"2 48098  53.0557  36.2466 0001125  87.5827 272.5290 15.06396036107542","FILE":"3856975","TLE_LINE1":"1 48098U 21027G   23069.91510350  .00027137  00000-0  18339-2 0  9991","ELEMENT_SET_NO":"999","PERIOD":"95.592","REF_FRAME":"TEME","GP_ID":"227815858","EPOCH":"2023-03-10T21:57:44.942400","MEAN_ANOMALY":"272.5290","RCS_SIZE":"LARGE","CENTER_NAME":"EARTH","SITE":"AFETR","MEAN_MOTION_DDOT":"0.0000000000000","ECCENTRICITY":"0.00011250","TIME_SYSTEM":"UTC","ARG_OF_PERICENTER":"87.5827","COUNTRY_CODE":"US","REV_AT_EPOCH":"10754"},{"MEAN_ANOMALY":"300.3306","EPOCH":"2023-03-10T15:18:19.460736","GP_ID":"227815609","REF_FRAME":"TEME","PERIOD":"95.591","RCS_SIZE":"LARGE","MEAN_MOTION_DDOT":"0.0000000000000","SITE":"AFETR","CENTER_NAME":"EARTH","COUNTRY_CODE":"US","REV_AT_EPOCH":"10736","ARG_OF_PERICENTER":"59.7734","TIME_SYSTEM":"UTC","ECCENTRICITY":"0.00005160","OBJECT_NAME":"STARLINK-2428","OBJECT_TYPE":"PAYLOAD","LAUNCH_DATE":"2021-04-07","MEAN_MOTION_DOT":"0.00014838","BSTAR":"0.00101250000000","CLASSIFICATION_TYPE":"U","MEAN_ELEMENT_THEORY":"SGP4","MEAN_MOTION":"15.06416101","DECAY_DATE":null,"EPHEMERIS_TYPE":"0","APOAPSIS":"547.522","INCLINATION":"53.0527","RA_OF_ASC_NODE":"47.4953","SEMIMAJOR_AXIS":"6925.299","ELEMENT_SET_NO":"999","TLE_LINE1":"1 48099U 21027H   23069.63772524  .00014838  00000-0  10125-2 0  9993","FILE":"3856975","TLE_LINE2":"2 48099  53.0527  47.4953 0000516  59.7734 300.3306 15.06416101107360","PERIAPSIS":"546.807","NORAD_CAT_ID":"48099","OBJECT_ID":"2021-027H"},{"BSTAR":"0.00146970000000","MEAN_MOTION_DOT":"0.00021667","LAUNCH_DATE":"2021-04-07","OBJECT_TYPE":"PAYLOAD","OBJECT_NAME":"STARLINK-2430","OBJECT_ID":"2021-027J","NORAD_CAT_ID":"48100","PERIAPSIS":"545.580","TLE_LINE2":"2 48100  53.0554  27.6707 0002439  79.6103 280.5161 15.06381838107644","TLE_LINE1":"1 48100U 21027J   23069.59903585  .00021667  00000-0  14697-2 0  9990","ELEMENT_SET_NO":"999","FILE":"3856975","RA_OF_ASC_NODE":"27.6707","SEMIMAJOR_AXIS":"6925.404","INCLINATION":"53.0554","APOAPSIS":"548.958","EPHEMERIS_TYPE":"0","DECAY_DATE":null,"MEAN_MOTION":"15.06381838","MEAN_ELEMENT_THEORY":"SGP4","CLASSIFICATION_TYPE":"U","RCS_SIZE":"LARGE","PERIOD":"95.593","REF_FRAME":"TEME","GP_ID":"227814357","EPOCH":"2023-03-10T14:22:36.697440","MEAN_ANOMALY":"280.5161","ECCENTRICITY":"0.00024390","TIME_SYSTEM":"UTC","ARG_OF_PERICENTER":"79.6103","REV_AT_EPOCH":"10764","COUNTRY_CODE":"US","CENTER_NAME":"EARTH","SITE":"AFETR","MEAN_MOTION_DDOT":"0.0000000000000"},{"LAUNCH_DATE":"2021-04-07","OBJECT_TYPE":"PAYLOAD","BSTAR":"0.00149880000000","MEAN_MOTION_DOT":"0.00022129","OBJECT_NAME":"STARLINK-2436","NORAD_CAT_ID":"48101","PERIAPSIS":"545.998","TLE_LINE2":"2 48101  53.0549  39.5309 0001638  99.8003 260.3171 15.06426352107448","TLE_LINE1":"1 48101U 21027K   23069.18433507  .00022129  00000-0  14988-2 0  9995","FILE":"3856975","ELEMENT_SET_NO":"999","OBJECT_ID":"2021-027K","MEAN_MOTION":"15.06426352","DECAY_DATE":null,"MEAN_ELEMENT_THEORY":"SGP4","CLASSIFICATION_TYPE":"U","RA_OF_ASC_NODE":"39.5309","SEMIMAJOR_AXIS":"6925.268","INCLINATION":"53.0549","APOAPSIS":"548.267","EPHEMERIS_TYPE":"0","RCS_SIZE":"LARGE","EPOCH":"2023-03-10T04:25:26.550048","MEAN_ANOMALY":"260.3171","PERIOD":"95.590","REF_FRAME":"TEME","GP_ID":"227814607","ARG_OF_PERICENTER":"99.8003","COUNTRY_CODE":"US","REV_AT_EPOCH":"10744","ECCENTRICITY":"0.00016380","TIME_SYSTEM":"UTC","SITE":"AFETR","MEAN_MOTION_DDOT":"0.0000000000000","CENTER_NAME":"EARTH"},{"OBJECT_NAME":"STARLINK-2437","LAUNCH_DATE":"2021-04-07","OBJECT_TYPE":"PAYLOAD","BSTAR":"0.00104540000000","MEAN_MOTION_DOT":"0.00015316","DECAY_DATE":null,"MEAN_MOTION":"15.06380112","MEAN_ELEMENT_THEORY":"SGP4","CLASSIFICATION_TYPE":"U","RA_OF_ASC_NODE":"29.6360","SEMIMAJOR_AXIS":"6925.410","INCLINATION":"53.0560","APOAPSIS":"548.314","EPHEMERIS_TYPE":"0","NORAD_CAT_ID":"48102","PERIAPSIS":"546.235","TLE_LINE2":"2 48102  53.0560  29.6360 0001501 102.1026 258.0131 15.06380112107578","FILE":"3856975","TLE_LINE1":"1 48102U 21027L   23069.16042402  .00015316  00000-0  10454-2 0  9998","ELEMENT_SET_NO":"999","OBJECT_ID":"2021-027L","EPOCH":"2023-03-10T03:51:00.635328","MEAN_ANOMALY":"258.0131","PERIOD":"95.593","REF_FRAME":"TEME","GP_ID":"227815359","RCS_SIZE":"LARGE","SITE":"AFETR","MEAN_MOTION_DDOT":"0.0000000000000","CENTER_NAME":"EARTH","ARG_OF_PERICENTER":"102.1026","COUNTRY_CODE":"US","REV_AT_EPOCH":"10757","ECCENTRICITY":"0.00015010","TIME_SYSTEM":"UTC"},{"MEAN_ELEMENT_THEORY":"SGP4","MEAN_MOTION":"15.09031409","DECAY_DATE":null,"CLASSIFICATION_TYPE":"U","INCLINATION":"53.0537","SEMIMAJOR_AXIS":"6917.295","RA_OF_ASC_NODE":"27.3681","EPHEMERIS_TYPE":"0","APOAPSIS":"542.474","PERIAPSIS":"535.846","NORAD_CAT_ID":"48103","ELEMENT_SET_NO":"999","TLE_LINE1":"1 48103U 21027M   23069.60568079  .00051188  00000-0  31935-2 0  9995","FILE":"3856975","TLE_LINE2":"2 48103  53.0537  27.3681 0004791 110.2790 249.8715 15.09031409107645","OBJECT_ID":"2021-027M","OBJECT_NAME":"STARLINK-2438","LAUNCH_DATE":"2021-04-07","OBJECT_TYPE":"PAYLOAD","BSTAR":"0.00319350000000","MEAN_MOTION_DOT":"0.00051188","SITE":"AFETR","MEAN_MOTION_DDOT":"0.0000000000000","CENTER_NAME":"EARTH","ARG_OF_PERICENTER":"110.2790","COUNTRY_CODE":"US","REV_AT_EPOCH":"10764","ECCENTRICITY":"0.00047910","TIME_SYSTEM":"UTC","EPOCH":"2023-03-10T14:32:10.820256","MEAN_ANOMALY":"249.8715","REF_FRAME":"TEME","PERIOD":"95.425","GP_ID":"227816109","RCS_SIZE":"LARGE"}];
